#aV2024  4 25  0  0  0.00000000     288 DD+AD WGS84 FIT  NGA
## 2311 345600.00000000   300.00000000 60425 0.0000000000000
+   31     2  3  4  5  6  7  8  9 10 11 12 13 14 15 16 17 18
+         19 20 21 22 23 24 25 26 27 28 29 30 31 32  0  0  0
+          0  0  0  0  0  0  0  0  0  0  0  0  0  0  0  0  0
+          0  0  0  0  0  0  0  0  0  0  0  0  0  0  0  0  0
+          0  0  0  0  0  0  0  0  0  0  0  0  0  0  0  0  0
++         2  2  2  2  2  2  2  2  2  2  2  2  2  2  2  2  2
++         2  2  2  2  2  2  2  2  2  2  2  2  2  2  0  0  0
++         0  0  0  0  0  0  0  0  0  0  0  0  0  0  0  0  0
++         0  0  0  0  0  0  0  0  0  0  0  0  0  0  0  0  0
++         0  0  0  0  0  0  0  0  0  0  0  0  0  0  0  0  0
%c cc cc ccc ccc cccc cccc cccc cccc ccccc ccccc ccccc ccccc
%c cc cc ccc ccc cccc cccc cccc cccc ccccc ccccc ccccc ccccc
%f  0.0000000  0.000000000  0.00000000000  0.000000000000000
%f  0.0000000  0.000000000  0.00000000000  0.000000000000000
%i    0    0    0    0      0      0      0      0         0
%i    0    0    0    0      0      0      0      0         0
/*      NGA, ST. LOUIS,MO.                                  
/*   EPHEMERIS COMPUTED FROM 2 DAYS OF DATA                 
/*   EPOCHA v9 SMOOTHER                                     
/*   G2296 IERS2010 SATIGS SATAPC                           
*  2024  4 25  3 25  0.00000000
P  2 -13995.566816  11410.600169  19863.541382   -447.538137                    
V  2   -533.145801 -24279.686608  14187.063740      0.065830                    
P  3 -22955.660689  12722.952056  -3765.862952    329.210301                    
V  3  -5069.463019   -121.411968  31873.656183      0.206312                    
P  4 -15986.129069   5500.682688 -20500.390619    346.550932                    
V  4 -19886.594096 -16810.398708  10856.771532      0.086452                    
P  5  24114.101648  -3777.385218 -10757.867762   -170.373214                    
V  5 -11037.698418   7793.304638 -27845.162259     -0.013693                    
P  6   6052.095254  22071.842013 -13317.280436    305.526653                    
V  6  -3703.257205  16677.338290  25944.667385     -0.185489                    
P  7  -5408.459455  25414.428729  -3586.296811   -114.806899                    
V  7  -2964.207389  -5609.658565 -31388.779431     -0.083900                    
P  8 -22142.787226  -2551.947979  14650.138510    142.070505                    
V  8 -14251.179390 -12181.454818 -23066.115424      0.221132                    
P  9  -3600.864479  15675.914210 -21206.833824    172.656929                    
V  9 -22337.722717 -14759.088412  -7195.626685      0.137893                    
P 10  -4354.877430 -14216.405329  22201.091233    -13.211200                    
V 10  25420.930023 -10849.139985  -2289.971322     -0.051930                    
P 11  12668.547083  10943.120395 -20609.998611   -645.602116                    
V 11  -4969.137717  25729.001568  10546.069902     -0.101097                    
P 12  24204.208084 -10612.425276  -2596.184288   -499.627098                    
V 12   3716.311602   1600.783204  31615.519236     -0.033956                    
P 13  21679.365221  12216.122976   9401.994676    645.460155                    
V 13   7190.173166  10019.435040 -28742.297736      0.030440                    
P 14    -28.191998  16323.464037  20947.989912    384.772788                    
V 14 -24961.984718   9291.449503  -7486.367225      0.094485                    
P 15  22306.099427    -58.850207  14068.693537    152.063547                    
V 15  15299.548765  11094.416012 -23198.559270      0.040715                    
P 16 -23077.915176  -2241.065439 -13690.523724   -308.248459                    
V 16  15204.258257  -7011.615699 -24659.229360      0.096020                    
P 17   8319.844719  20426.898682  15101.230846    710.297006                    
V 17 -15384.339993 -10413.845543  23363.904750     -0.014699                    
P 18   5552.162563 -25659.061450  -3256.101638   -600.252829                    
V 18   1960.552459   4455.200674 -31831.285751     -0.063531                    
P 19  16049.237650  20428.808228   6238.218520    472.973561                    
V 19  -7445.561704  -3812.043657  30359.408100      0.053400                    
P 20  18225.078405   3867.973303 -18811.999353    378.938490                    
V 20 -19133.699491  14722.498098 -15606.420335     -0.013916                    
P 21 -15142.074132   4874.741665  21568.094019    125.381953                    
V 21   -448.215981 -26528.746396   6803.190311     -0.022063                    
P 22   7986.423911  13417.439644  21882.711044     -4.428776                    
V 22 -25280.943802   8952.433470   4098.541172     -0.054952                    
P 23   8868.338708 -17476.907141  17857.929156    209.304481                    
V 23  21085.627506  -8409.644900 -18913.366314      0.094167                    
P 24  14598.330538  -9442.359279  19554.391791   -463.133326                    
V 24   1279.974110  25975.065556  11757.732355     -0.040943                    
P 25  17685.500556 -16621.740396 -10808.611048    494.476362                    
V 25  13299.650329  -2997.310162  27488.714196      0.007874                    
P 26 -14098.221457  -9735.371822 -20521.714604    162.061345                    
V 26  22272.528609 -12959.763222  -8853.179317     -0.052372                    
P 27 -23101.723314 -12555.559732   4843.248813    -20.609406                    
V 27  -3816.955960  -5707.849692 -30724.038961     -0.021338                    
P 28  -5779.042767 -23543.907971 -10867.290132   -217.024847                    
V 28   3479.222107 -13549.514294  27534.018917     -0.155081                    
P 29   7128.262504 -13492.106194 -21782.570382   -600.762087                    
V 29  21106.386243  17646.836524  -4140.104806      0.013066                    
P 30   2002.276061  25545.608018   6573.568845   -400.211692                    
V 30  -4542.795504   7799.796477 -29837.335545      0.056786                    
P 31 -11270.642502 -15284.530645 -18617.416843   -227.970121                    
V 31   4791.467251 -22934.671636  16503.425064      0.000760                    
P 32 -12253.018378 -19948.737728  12944.712664   -618.377172                    
V 32  14210.087313   7679.979372  25509.796752     -0.001776                    
EOF
